Last Name,First Name,Email Address,Zipcode,City,State,Address,Homephone,Regdate
Hankins,SArah,pinalevitsky@jumpstartlab.com,20009,Washington,DC,2022 15th Street NW,4145205000,11/12/08 13:23
Xx,Sarah,lqrm4462@jumpstartlab.com,33703,Saint Petersburg,FL,4175 3rd Street North,9419792000,11/12/08 13:30
Cordova,Sarah,tmai.202@jumpstartlab.com,21044,Columbia,MD,5430 Hesperus Drive,4109639000,12/3/08 21:43
Irvine,Sarah,wwoodruf@jumpstartlab.com,30127,Powder Springs,GA,6184 Windflower Drive,7704249000,12/8/08 21:09
Hough,Sarah,gi@jumpstartlab.com,06614,stratford,CT,42c powder mill drive,2036506000,12/9/08 9:47
Geretz,Sarah,ovdawaaa@jumpstartlab.com,01002,Amherst,MA,72 Triangle St. appt. 2,8572311000,12/11/08 16:55
Sample,Sarah,nqiza@jumpstartlab.com,94619,Oakland,CA,270 Rishell Drive,5107086000,12/15/08 17:45
Gerow,Sarah,xnb77@jumpstartlab.com,33559,Lutz,FL,2501 Black Horse Loop Apt 301C,8137359000,12/16/08 13:16
Eden,Sarah,cetephenson@jumpstartlab.com,33559,Lutz,FL,2501 Black Horse Loop Apt 301C,8136798000,12/16/08 13:44
Riordan,Sarah,ctuhspugha@jumpstartlab.com,80212,Denver,CO,2814 Tennyson St.,7202058000,12/18/08 17:43
Gordon,Sarah,cxcahdprice@jumpstartlab.com,43554,Pioneer,OH,18476 County Road 15,4197373000,12/19/08 5:31
Johnston,Sarah,gylaki@jumpstartlab.com,94104,San Francisco,CA,221 Pine St,4157863000,12/19/08 14:33
Oddie,Sarah,blhhhhhhhh@jumpstartlab.com,94101,san francisco,CA,221 pine st,4157863000,12/19/08 14:39
Catlin,Sarah,tlacyjamesrossi3@jumpstartlab.com,40206,Louisville,KY,114 N Galt Ave,5029386000,12/19/08 15:56
Clatterbuck,Sarah,dhchleith@jumpstartlab.com,05401,Burlington,VT,37 D Conger Ave,8025401000,12/30/08 11:28
Dernoga,Sarah,gkpaldin@jumpstartlab.com,49461,Whitehall,MI,7473 Easy Street,2316707000,1/5/09 18:23
Ojeh,Sarah,bfkelly@jumpstartlab.com,20742,College Park,MD,8000 Boteler Lane Appt 248A,4104743000,1/10/09 12:44
Sparrow,Sarah,jw9@jumpstartlab.com,13346,Hamilton,NY,No address provided,9084187000,1/10/09 17:38
Deutschmann,Sarah,pooneil@jumpstartlab.com,03435,"Keene, NH",NH,229 Main St.,6032752000,1/19/09 17:32
Alilionis,Sarah,jhagamininj4@jumpstartlab.com,03431,Keene,NH,21 Coolidge Street,2032783000,1/19/09 17:39
Meyer,Sarah,ohhalaf@jumpstartlab.com,32816,Orlando,FL,4000 Central Florida Blvd,5612024000,1/20/09 20:55
Doe,SArah,dnary.franko@jumpstartlab.com,32828,Orlando,FL,12846 Lexington Summit St,9043348000,1/20/09 21:12
Beck,Sarah,fsong_moua@jumpstartlab.com,92122,Lakewood,CA,4174 Manor Dr.,5624724000,1/20/09 21:53
Miner,Sarah,kjlie.garrett@jumpstartlab.com,07430,mahwah,NJ,505 ramapo valley rd,6465849000,1/20/09 22:13
Krumholz,Sarah,wrokaranm@jumpstartlab.com,16057,Slippery Rock,PA,241 Maltby Ave Apt: A,7244935000,1/20/09 22:14
Ogle,Sarah,jkvan7@jumpstartlab.com,06226,Willimantic,CT,31B Bellevue St.,8604500000,1/21/09 10:09
Hagan,Sarah,pxazierm3090@jumpstartlab.com,02912,Providence,RI,69 Brown Street,2064847000,1/21/09 15:46
Doe,Sarah,vo_tigner@jumpstartlab.com,23173,University of Richmond,VA,28 Westhampton Way,9084186000,1/21/09 16:26
Goblirsch,Sarah,upeller@jumpstartlab.com,78626,Georgetown,TX,1001 E. University Ave.,9564637000,1/21/09 16:41
Pickoff,Sarah,jfacicot@jumpstartlab.com,28778,Swannanoa,NC,701 Warren Wilson Road,9175664000,1/21/09 19:08
Brunton,Sarah,vkrolyn@jumpstartlab.com,05669,Potsdam,NY,10 Clarkson Ave.,8028396000,1/21/09 20:08
Xx,Sarah,yqlaire@jumpstartlab.com,14850,b,MS,b,6073512000,1/21/09 20:22
Haber,Sarah,jllement@jumpstartlab.com,48208,x,MI,x,5863223000,1/21/09 21:30
Poffenbarger,Sarah,sschott@jumpstartlab.com,43015,Delaware,OH,40 Rowland Ave.,4195289000,1/21/09 21:53
Hairabedian,Sarah,ipssica.roberts@jumpstartlab.com,48858,Mount Pleasant,MI,111 No Road,8102523000,1/21/09 22:01
Uhl,Sarah,fxily.tsitrian@jumpstartlab.com,48858,MOunt Pleasant,MI,111 No Road,8102523000,1/21/09 22:05
Rosenblad,Sarah,ecngy@jumpstartlab.com,97702,Bend,OR,22415 Calgary Drive,5414080000,1/21/09 22:18
Leonard,Sarah,xgura.yin@jumpstartlab.com,05401,Burlington,VT,32 South Union St,6312758000,1/21/09 22:30
Sankey,Sarah,uxragoag@jumpstartlab.com,08544,Princeton,NJ,12345 Frist Center,2159839000,1/21/09 22:44
Du,Sarah,wtslaug06@jumpstartlab.com,14853,Ithaca,NY,1G14H Jameson Hall,5613589000,1/21/09 22:51
Lichtenauer,Sarah,goddagjm@jumpstartlab.com,25705,Huntington,WV,5037 West Pea Ridge Rd,3044122000,1/21/09 22:56
Roffe,Sarah,jsjenkin@jumpstartlab.com,97219,Portland,OR,0615 SW Palatine Hill Rd,8123454000,1/21/09 23:38
Null,Sarah,rcverburg@jumpstartlab.com,21210,Baltimore,MD,MS 2361 4501 N. Charles St,9086982000,1/21/09 23:46
Morgan,Sarah,qgrls1es@jumpstartlab.com,00000,No city provided,No state provided,No address provided,3015803000,1/22/09 0:47
Abreu,Sarah,hrf001@jumpstartlab.com,18923,Fountainville,PA,53 Shoemaker Drive,2673422000,1/28/09 15:37
Markus,Sarah,fuo@jumpstartlab.com,15213,Pittsburgh,PA,302 N. Craig St,8459887000,1/29/09 15:36
Gaber,Sarah,nhmichae@jumpstartlab.com,70820,Baton Rouge,LA,1645 Brightside Ln. Apt #217,9856308000,1/30/09 0:47
Bayer,Sarah,jfshaw@jumpstartlab.com,24501,Lynchburg,VA,1501 Lakeside Dr,3028587000,1/30/09 12:31
Waldman,Sarah,cychelleighguillory@jumpstartlab.com,21216,x,MD,x,3016131000,1/30/09 14:43
Hall,Sarah,quarmas2@jumpstartlab.com,22030,Fairfax,VA,4400 University Drive,8603958000,1/30/09 15:20
Schroder,Sarah,il114706@jumpstartlab.com,22025,Montclair,VA,15437 Beachview Drive,8452249000,1/30/09 15:30
Shaikh,Sarah,idavis2@jumpstartlab.com,37614,Johnson City,TN,ETSU Box 16272,8655851000,1/30/09 16:22
Wroblewski,Sarah,stwoods@jumpstartlab.com,10583,Scarsdale,NY,101 Lakeview Avenue,5615041000,1/30/09 16:51
Elles,Sarah,gvwacoordinator@jumpstartlab.com,24060,null,VA,null,5712411000,1/30/09 17:58
Liebst,Sarah,ebtiburcio@jumpstartlab.com,02454,Waltham,MA,415 South st,6104629000,1/30/09 18:39
Parulekar,Sarah,ofods@jumpstartlab.com,97230,Portland,OR,13939 Beech Ct,5037525000,1/30/09 20:56
Last Name,Sarah,ldhnt@jumpstartlab.com,24595,Sweet Briar,VA,Sweet Briar,2483101000,1/30/09 22:47
Belcher,Sarah,bapooooooooooooohhhh@jumpstartlab.com,05753,Middlebury,VT,4576 Middlebury College,2023166000,1/31/09 15:23
Budd,Sarah,kierl@jumpstartlab.com,04902,Waterville,ME,6052 Mayflower Hill,7183054000,1/31/09 17:02
Williams,Sarah,dvjaff07@jumpstartlab.com,21136,reisterstown,MD,14021 woodlings lane,4436324000,1/31/09 18:28
Brisbois,Sarah,wqlee0808@jumpstartlab.com,21218,Baltimore,MD,3043 Frisby St.,4436324000,1/31/09 18:34
Alderson,Sarah,oe3887a@jumpstartlab.com,59801,Missoula,MT,2604 Maurice Ave.,7194390000,1/31/09 19:45
Renner-Yeomans,Sarah,sseldcf@jumpstartlab.com,01610,Worcester,MA,Holy Cross College 1 College Street,8478044000,1/31/09 21:17
Robinson,Sarah,alng30y@jumpstartlab.com,15208,Pittsburgh,PA,700 Highland Ave Apt 114,4123785000,1/31/09 22:36
Beck,Sarah,pmleindi@jumpstartlab.com,25702,Huntington,WV,2802 South Staunton Rd,13045426000,1/31/09 23:00
Brown,Sarah,emullensg@jumpstartlab.com,55105,St. Paul,MN,1600 Grand Ave,9148442000,1/31/09 23:50
Gladwin,Sarah,tmlion@jumpstartlab.com,20190,Reston,VA,11100 Wildlife Center Dr,7034386000,2/1/09 7:35
Carter,Sarah,kgete20c@jumpstartlab.com,20190,Reston,VA,11100 Wildlife Center Dr,7348877000,2/1/09 7:59
Larson,Sarah,ivath90b@jumpstartlab.com,17325,Gettysburg,PA,Box 0546 Gettysburg College,9522501000,2/1/09 10:40
Ruud,Sarah,lprissa.S.Knodel@jumpstartlab.com,40508,Lexington,KY,300 N. Broadway,6067480000,2/1/09 15:07
Guethle,Sarah,sdtie.knee@jumpstartlab.com,01610,Worcester,MA,950 Main ST. Box 1635,5186979000,2/1/09 20:34
Wilburn,Sarah,dqessearp@jumpstartlab.com,55413,Minneapolis,MN,1703 Lincoln St,6129785000,2/1/09 21:28
B,Sarah,ot1898a@jumpstartlab.com,04353,whitefield,ME,121 rooney lane,2074854000,2/1/09 21:36
Hendler,Sarah,hqiley@jumpstartlab.com,49601,Cadillac,MI,11395 E. 46 Rd.,2318785000,2/1/09 22:44
Waickman,Sarah,pvssino_a@jumpstartlab.com,42101,Bowling Green,KY,1538 Chestnut Street,6153306000,2/1/09 23:17
Herring,Sarah,ofairbushmancolby@jumpstartlab.com,12180,Troy,NY,"Nason 205, 1999 Burdett Ave.",6463399000,2/1/09 23:24
Gosse,Sarah,bsore@jumpstartlab.com,20912,Takoma Park,MD,7600 Flower Ave.,3042795000,2/1/09 23:33
Arnold,Sarah,yu319306@jumpstartlab.com,44074,oberlin,OH,OCMR 1984,4436049000,2/2/09 0:00
